{
  "norad_id": 65773,
  "name": "KUIPER-00153",
  "history": [
    {
      "epoch": "2026-03-28T22:00:01.999584Z",
      "apogee_km": 625.3892043457618,
      "perigee_km": 608.6136033284474,
      "latitude_deg": -51.713236949296046,
      "longitude_deg": 44.57353719171879,
      "height_km": 636.9419422027903,
      "semi_major_axis_km": 6995.138403837104,
      "eccentricity": 0.00119909,
      "inclination_deg": 51.8986,
      "raan_deg": 299.8032,
      "arg_perigee_deg": 9.2241,
      "mean_anomaly_deg": 255.3828,
      "mean_motion_rev_day": 14.83912504
    },
    {
      "epoch": "2026-03-29T04:00:01.999584Z",
      "apogee_km": 625.0530073964173,
      "perigee_km": 608.948800913472,
      "latitude_deg": 14.84916698609878,
      "longitude_deg": -139.83087633772627,
      "height_km": 624.0820861107268,
      "semi_major_axis_km": 6995.137904154944,
      "eccentricity": 0.0011511,
      "inclination_deg": 51.8995,
      "raan_deg": 298.6869,
      "arg_perigee_deg": 9.8895,
      "mean_anomaly_deg": 151.0596,
      "mean_motion_rev_day": 14.83912663
    },
    {
      "epoch": "2026-03-30T04:00:01.999584Z",
      "apogee_km": 625.4238269350426,
      "perigee_km": 615.9302156677086,
      "latitude_deg": 49.87767053116167,
      "longitude_deg": 158.94280454490965,
      "height_km": 625.8879072738523,
      "semi_major_axis_km": 6998.814021301376,
      "eccentricity": 0.00067823,
      "inclination_deg": 51.8991,
      "raan_deg": 294.2412,
      "arg_perigee_deg": 19.7956,
      "mean_anomaly_deg": 84.2939,
      "mean_motion_rev_day": 14.82743682
    },
    {
      "epoch": "2026-03-30T14:00:03.000384Z",
      "apogee_km": 625.4436952827755,
      "perigee_km": 618.1185609584218,
      "latitude_deg": 8.072716332585843,
      "longitude_deg": 68.05388787323571,
      "height_km": 624.738878492023,
      "semi_major_axis_km": 6999.918128120598,
      "eccentricity": 0.00052323,
      "inclination_deg": 51.9007,
      "raan_deg": 292.3897,
      "arg_perigee_deg": 27.3958,
      "mean_anomaly_deg": 142.2541,
      "mean_motion_rev_day": 14.82392883
    },
    {
      "epoch": "2026-03-30T22:00:00.999936Z",
      "apogee_km": 625.7126385328183,
      "perigee_km": 619.498639351641,
      "latitude_deg": 23.498177000688553,
      "longitude_deg": -67.21299423131667,
      "height_km": 624.7685405976063,
      "semi_major_axis_km": 7000.74263894223,
      "eccentricity": 0.00044381,
      "inclination_deg": 51.9007,
      "raan_deg": 290.9116,
      "arg_perigee_deg": 30.7849,
      "mean_anomaly_deg": 118.8128,
      "mean_motion_rev_day": 14.82131008
    },
    {
      "epoch": "2026-03-31T20:00:01.999008Z",
      "apogee_km": 625.8666102465813,
      "perigee_km": 621.9062657900386,
      "latitude_deg": 2.4062665461941948,
      "longitude_deg": 159.50689897395088,
      "height_km": 622.5512091554809,
      "semi_major_axis_km": 7002.02343801831,
      "eccentricity": 0.0002828,
      "inclination_deg": 51.9009,
      "raan_deg": 286.8424,
      "arg_perigee_deg": 27.5956,
      "mean_anomaly_deg": 335.554,
      "mean_motion_rev_day": 14.81724363
    },
    {
      "epoch": "2026-04-01T20:00:01.999008Z",
      "apogee_km": 626.8807245856797,
      "perigee_km": 625.570908738965,
      "latitude_deg": -43.752632242377175,
      "longitude_deg": 103.91752007839418,
      "height_km": 641.4417101042372,
      "semi_major_axis_km": 7004.362816662322,
      "eccentricity": 9.35e-05,
      "inclination_deg": 51.9008,
      "raan_deg": 282.4129,
      "arg_perigee_deg": 138.1632,
      "mean_anomaly_deg": 160.696,
      "mean_motion_rev_day": 14.80982106
    },
    {
      "epoch": "2026-04-02T20:00:01.999008Z",
      "apogee_km": 629.396812595618,
      "perigee_km": 627.5092372429044,
      "latitude_deg": -38.47963710550173,
      "longitude_deg": 5.106910764147507,
      "height_km": 641.2937775594369,
      "semi_major_axis_km": 7006.590024919261,
      "eccentricity": 0.0001347,
      "inclination_deg": 51.9011,
      "raan_deg": 277.9866,
      "arg_perigee_deg": 115.3537,
      "mean_anomaly_deg": 116.5628,
      "mean_motion_rev_day": 14.80276015
    },
    {
      "epoch": "2026-04-02T22:00:01.999584Z",
      "apogee_km": 630.2962204712276,
      "perigee_km": 629.4094294387778,
      "latitude_deg": -33.16582897334034,
      "longitude_deg": 85.71216483270638,
      "height_km": 640.1503103334389,
      "semi_major_axis_km": 7007.989824955002,
      "eccentricity": 6.327e-05,
      "inclination_deg": 51.9015,
      "raan_deg": 277.6182,
      "arg_perigee_deg": 51.6495,
      "mean_anomaly_deg": 264.6128,
      "mean_motion_rev_day": 14.79832524
    },
    {
      "epoch": "2026-04-03T20:00:01.999008Z",
      "apogee_km": 631.5769529082227,
      "perigee_km": 629.7925068957893,
      "latitude_deg": 13.819149324366252,
      "longitude_deg": -49.66308319350756,
      "height_km": 630.328315558137,
      "semi_major_axis_km": 7008.821729902006,
      "eccentricity": 0.0001273,
      "inclination_deg": 51.9014,
      "raan_deg": 273.566,
      "arg_perigee_deg": 96.2302,
      "mean_anomaly_deg": 66.0979,
      "mean_motion_rev_day": 14.79569061
    },
    {
      "epoch": "2026-04-04T20:00:01.999008Z",
      "apogee_km": 634.3835404797728,
      "perigee_km": 632.4329285955255,
      "latitude_deg": 52.04567175473144,
      "longitude_deg": -132.73278739231642,
      "height_km": 638.6546890065192,
      "semi_major_axis_km": 7011.545234537649,
      "eccentricity": 0.0001391,
      "inclination_deg": 51.9015,
      "raan_deg": 269.1481,
      "arg_perigee_deg": 107.7782,
      "mean_anomaly_deg": 343.0124,
      "mean_motion_rev_day": 14.78707078
    },
    {
      "epoch": "2026-04-05T14:00:03.000384Z",
      "apogee_km": 641.6485860584926,
      "perigee_km": 639.6057045663583,
      "latitude_deg": 42.34907184469414,
      "longitude_deg": -3.3062162780110094,
      "height_km": 643.5863656545554,
      "semi_major_axis_km": 7018.764145312425,
      "eccentricity": 0.00014553,
      "inclination_deg": 51.9242,
      "raan_deg": 265.8457,
      "arg_perigee_deg": 125.267,
      "mean_anomaly_deg": 356.1352,
      "mean_motion_rev_day": 14.76426354
    },
    {
      "epoch": "2026-04-05T20:00:03.000384Z",
      "apogee_km": 641.4718907091592,
      "perigee_km": 639.9038852291869,
      "latitude_deg": 8.596705150209896,
      "longitude_deg": 137.37246562441555,
      "height_km": 641.1734988286396,
      "semi_major_axis_km": 7018.824887969173,
      "eccentricity": 0.0001117,
      "inclination_deg": 51.9017,
      "raan_deg": 264.748,
      "arg_perigee_deg": 135.6637,
      "mean_anomaly_deg": 235.3262,
      "mean_motion_rev_day": 14.76407188
    },
    {
      "epoch": "2026-04-06T06:00:02.000160Z",
      "apogee_km": 641.4839974089818,
      "perigee_km": 639.8705123880654,
      "latitude_deg": 46.510581213478176,
      "longitude_deg": 33.652582853554314,
      "height_km": 645.192439066266,
      "semi_major_axis_km": 7018.814254898523,
      "eccentricity": 0.00011494,
      "inclination_deg": 51.9015,
      "raan_deg": 262.9138,
      "arg_perigee_deg": 127.5067,
      "mean_anomaly_deg": 299.39,
      "mean_motion_rev_day": 14.76410543
    },
    {
      "epoch": "2026-04-07T20:00:00.999360Z",
      "apogee_km": 641.3915810168337,
      "perigee_km": 639.9583396145372,
      "latitude_deg": -21.525679620639455,
      "longitude_deg": -42.24215925394575,
      "height_km": 646.5593599086224,
      "semi_major_axis_km": 7018.811960315685,
      "eccentricity": 0.0001021,
      "inclination_deg": 51.9017,
      "raan_deg": 255.9532,
      "arg_perigee_deg": 120.2445,
      "mean_anomaly_deg": 87.2954,
      "mean_motion_rev_day": 14.76411267
    },
    {
      "epoch": "2026-04-08T14:00:04.999680Z",
      "apogee_km": 641.3473034185708,
      "perigee_km": 639.7898526508043,
      "latitude_deg": -41.23733474827418,
      "longitude_deg": 68.91352260982995,
      "height_km": 654.3464197259564,
      "semi_major_axis_km": 7018.705578034687,
      "eccentricity": 0.00011095,
      "inclination_deg": 51.9015,
      "raan_deg": 252.6543,
      "arg_perigee_deg": 130.2509,
      "mean_anomaly_deg": 106.2923,
      "mean_motion_rev_day": 14.76444834
    },
    {
      "epoch": "2026-04-09T00:00:02.999808Z",
      "apogee_km": 641.2358456938437,
      "perigee_km": 639.9189944943455,
      "latitude_deg": -46.856373819050205,
      "longitude_deg": -2.7569142369381106,
      "height_km": 657.0903232769164,
      "semi_major_axis_km": 7018.714420094094,
      "eccentricity": 9.381e-05,
      "inclination_deg": 51.9012,
      "raan_deg": 250.8224,
      "arg_perigee_deg": 126.2684,
      "mean_anomaly_deg": 166.1346,
      "mean_motion_rev_day": 14.76442044
    },
    {
      "epoch": "2026-04-10T10:25:19.239744Z",
      "apogee_km": 641.2741277023842,
      "perigee_km": 639.9026687595697,
      "latitude_deg": 1.0952981797424253e-05,
      "longitude_deg": -110.48390476844055,
      "height_km": 641.7937650020841,
      "semi_major_axis_km": 7018.725398230977,
      "eccentricity": 9.77e-05,
      "inclination_deg": 51.9016,
      "raan_deg": 244.5144,
      "arg_perigee_deg": 132.1923,
      "mean_anomaly_deg": 227.9121,
      "mean_motion_rev_day": 14.7643858
    },
    {
      "epoch": "2026-04-11T15:39:50.224896Z",
      "apogee_km": 641.3106422868041,
      "perigee_km": 639.8521526038148,
      "latitude_deg": -5.860285702618225e-06,
      "longitude_deg": 164.3275511391086,
      "height_km": 641.8656278740384,
      "semi_major_axis_km": 7018.718397445309,
      "eccentricity": 0.0001039,
      "inclination_deg": 51.902,
      "raan_deg": 239.1559,
      "arg_perigee_deg": 137.6962,
      "mean_anomaly_deg": 222.4079,
      "mean_motion_rev_day": 14.76440789
    }
  ]
}